NORAD_CAT_ID,OBJECT_NAME,OBJECT_TYPE,EPOCH,MEAN_MOTION,ECCENTRICITY,INCLINATION,RA_OF_ASC_NODE,ARG_OF_PERICENTER,MEAN_ANOMALY,BSTAR,MEAN_MOTION_DOT,MEAN_MOTION_DDOT,TLE_LINE0,TLE_LINE1,TLE_LINE2,SEMIMAJOR_AXIS,PERIOD,APOGEE,PERIGEE,DECAYED
53433.0,STARLINK-4549,PAYLOAD,2023-03-06 19:57:57,15.08829708,0.0001144,53.2192,357.082,84.3317,275.7806,0.0033279,0.00053059,0.0,0 STARLINK-4549,1 53433U 22097AX  23065.83192070  .00053059  00000-0  33279-2 0  9992,2 53433  53.2192 357.0820 0001144  84.3317 275.7806 15.08829708 32416,6917.912,95.438,540.568,538.985,0.0
53433.0,STARLINK-4549,PAYLOAD,2023-03-07 18:13:22,15.08857009,0.0001727,53.2185,352.9173,87.4094,272.7096,0.0026784,0.00042617,0.0,0 STARLINK-4549,1 53433U 22097AX  23066.75928430  .00042617  00000-0  26784-2 0  9992,2 53433  53.2185 352.9173 0001727  87.4094 272.7096 15.08857009 32554,6917.828,95.436,540.888,538.499,0.0
53433.0,STARLINK-4549,PAYLOAD,2023-03-08 03:45:40,15.08865537,8.74e-05,53.2189,351.1348,71.4927,288.616,0.0018264,0.00028919,0.0,0 STARLINK-4549,1 53433U 22097AX  23067.15671962  .00028919  00000-0  18264-2 0  9995,2 53433  53.2189 351.1348 0000874  71.4927 288.6160 15.08865537 32613,6917.802,95.436,540.272,539.063,0.0
53433.0,STARLINK-4549,PAYLOAD,2023-03-08 18:04:08,15.08874065,0.0001481,53.2183,348.4584,75.7894,284.3263,0.0022641,0.00035963,0.0,0 STARLINK-4549,1 53433U 22097AX  23067.75288141  .00035963  00000-0  22641-2 0  9995,2 53433  53.2183 348.4584 0001481  75.7894 284.3263 15.08874065 33167,6917.776,95.435,540.666,538.617,0.0
53433.0,STARLINK-4549,PAYLOAD,2023-03-09 00:25:41,15.08865295,6.79e-05,53.2183,347.2681,91.443,268.664,0.0022621,0.00035922,0.0,0 STARLINK-4549,1 53433U 22097AX  23068.01784044  .00035922  00000-0  22621-2 0  9991,2 53433  53.2183 347.2681 0000679  91.4430 268.6640 15.08865295 32743,6917.803,95.436,540.138,539.198,0.0
53433.0,STARLINK-4549,PAYLOAD,2023-03-09 17:54:55,15.08865498,0.0001139,53.2176,343.9988,66.9785,293.1327,0.0018185,0.00028792,0.0,0 STARLINK-4549,1 53433U 22097AX  23068.74648132  .00028792  00000-0  18185-2 0  9995,2 53433  53.2176 343.9988 0001139  66.9785 293.1327 15.08865498 32852,6917.802,95.436,540.455,538.88,0.0
53433.0,STARLINK-4549,PAYLOAD,2023-03-10 11:24:09,15.08859457,0.0001306,53.217,340.7277,83.267,276.847,0.00067947,0.00010548,0.0,0 STARLINK-4549,1 53433U 22097AX  23069.47511469  .00010548  00000-0  67947-3 0  9999,2 53433  53.2170 340.7277 0001306  83.2670 276.8470 15.08859457 32960,6917.821,95.436,540.589,538.782,0.0
53433.0,STARLINK-4549,PAYLOAD,2023-03-10 17:45:43,15.08812625,0.0001716,53.2173,339.5389,92.3611,267.7578,-0.00088459,-0.00014328,0.0,0 STARLINK-4549,1 53433U 22097AX  23069.74008318 -.00014328  00000-0 -88459-3 0  9996,2 53433  53.2173 339.5389 0001716  92.3611 267.7578 15.08812625 33004,6917.964,95.439,541.016,538.642,0.0
53433.0,STARLINK-4549,PAYLOAD,2023-03-11 03:18:03,15.08815607,0.0001231,53.2167,337.7538,108.9631,251.1494,0.0027185,0.00043213,0.0,0 STARLINK-4549,1 53433U 22097AX  23070.13753546  .00043213  00000-0  27185-2 0  9992,2 53433  53.2167 337.7538 0001231 108.9631 251.1494 15.08815607 33064,6917.955,95.439,540.672,538.968,0.0
53433.0,STARLINK-4549,PAYLOAD,2023-03-12 03:08:49,15.08890064,0.00012,53.2162,333.2924,113.3509,246.7609,0.0022684,0.00036048,0.0,0 STARLINK-4549,1 53433U 22097AX  23071.13112514  .00036048  00000-0  22684-2 0  9994,2 53433  53.2162 333.2924 0001200 113.3509 246.7609 15.08890064 33214,6917.727,95.434,540.422,538.762,0.0
53433.0,STARLINK-4549,PAYLOAD,2023-03-13 02:59:35,15.08877834,0.0001479,53.2179,328.8324,70.9723,289.1429,0.0017678,0.00027988,0.0,0 STARLINK-4549,1 53433U 22097AX  23072.12472057  .00027988  00000-0  17678-2 0  9995,2 53433  53.2179 328.8324 0001479  70.9723 289.1429 15.08877834 33367,6917.765,95.435,540.653,538.607,0.0
53433.0,STARLINK-4549,PAYLOAD,2023-03-13 22:04:13,15.08838377,0.0006681,53.2177,325.2617,166.7999,193.3169,0.0014076,0.00022192,0.0,0 STARLINK-4549,1 53433U 22097AX  23072.91960378  .00022192  00000-0  14076-2 0  9991,2 53433  53.2177 325.2617 0006681 166.7999 193.3169 15.08838377 33940,6917.885,95.438,544.372,535.129,0.0
53433.0,STARLINK-4549,PAYLOAD,2023-03-14 04:25:47,15.08826676,0.0001166,53.2168,324.0745,110.8064,249.3053,0.000763,0.00011872,0.0,0 STARLINK-4549,1 53433U 22097AX  23073.18457981  .00011872  00000-0  76300-3 0  9994,2 53433  53.2168 324.0745 0001166 110.8064 249.3053 15.08826676 33522,6917.921,95.438,540.593,538.979,0.0
53433.0,STARLINK-4549,PAYLOAD,2023-03-14 07:36:33,15.08828381,0.0001178,53.2166,323.4799,116.8732,243.2381,0.00043343,6.615e-05,0.0,0 STARLINK-4549,1 53433U 22097AX  23073.31705976  .00006615  00000-0  43343-3 0  9999,2 53433  53.2166 323.4799 0001178 116.8732 243.2381 15.08828381 34009,6917.916,95.438,540.596,538.966,0.0
53433.0,STARLINK-4549,PAYLOAD,2023-03-14 17:08:52,15.08844284,0.0001146,53.2158,321.6969,92.7159,267.3964,0.00078476,0.00012225,0.0,0 STARLINK-4549,1 53433U 22097AX  23073.71449311  .00012225  00000-0  78476-3 0  9990,2 53433  53.2158 321.6969 0001146  92.7159 267.3964 15.08844284 33608,6917.867,95.437,540.525,538.94,0.0
53433.0,STARLINK-4549,PAYLOAD,2023-03-15 01:05:47,15.08867859,0.0001169,53.2171,320.2085,101.4669,258.6455,0.0020589,0.00032657,0.0,0 STARLINK-4549,1 53433U 22097AX  23074.04569070  .00032657  00000-0  20589-2 0  9994,2 53433  53.2171 320.2085 0001169 101.4669 258.6455 15.08867859 33652,6917.795,95.436,540.469,538.852,0.0
53433.0,STARLINK-4549,PAYLOAD,2023-03-15 21:45:48,15.08854572,0.0001193,53.2164,316.3425,124.7879,235.3226,0.00032234,4.848e-05,0.0,0 STARLINK-4549,1 53433U 22097AX  23074.90680723  .00004848  00000-0  32234-3 0  9990,2 53433  53.2164 316.3425 0001193 124.7879 235.3226 15.08854572 34248,6917.836,95.437,540.526,538.876,0.0
53433.0,STARLINK-4549,PAYLOAD,2023-03-16 02:31:57,15.08852111,0.0001127,53.2162,315.451,86.6122,273.4999,0.00043352,6.621e-05,0.0,0 STARLINK-4549,1 53433U 22097AX  23075.10552917  .00006621  00000-0  43352-3 0  9990,2 53433  53.2162 315.4510 0001127  86.6122 273.4999 15.08852111 33814,6917.843,95.437,540.488,538.929,0.0
53433.0,STARLINK-4549,PAYLOAD,2023-03-16 07:18:07,15.08845104,0.0001159,53.2155,314.5583,87.561,272.5515,0.00030993,4.649e-05,0.0,0 STARLINK-4549,1 53433U 22097AX  23075.30424989  .00004649  00000-0  30993-3 0  9994,2 53433  53.2155 314.5583 0001159  87.5610 272.5515 15.08845104 34306,6917.865,95.437,540.532,538.928,0.0
53433.0,STARLINK-4549,PAYLOAD,2023-03-17 08:00:01,15.08847986,0.0001212,53.2156,309.9396,65.2442,127.6951,-0.0005295,-8.707e-05,0.0,0 STARLINK-4549,1 53433U 22097AX  23076.33334491 -.00008707  00000-0 -52950-3 0  9994,2 53433  53.2156 309.9396 0001212  65.2442 127.6951 15.08847986 33991,6917.856,95.437,540.559,538.883,0.0
53433.0,STARLINK-4549,PAYLOAD,2023-03-17 14:00:01,15.08831036,0.00012,53.2155,308.8165,73.0436,38.5973,0.0035914,0.0005732,0.0,0 STARLINK-4549,1 53433U 22097AX  23076.58334491  .00057320  00000-0  35914-2 0  9994,2 53433  53.2155 308.8165 0001200  73.0436  38.5973 15.08831036  1302,6917.908,95.438,540.603,538.943,0.0
53433.0,STARLINK-4549,PAYLOAD,2023-03-17 22:00:00,15.08887575,0.0001318,53.2154,307.3219,68.0729,55.1735,-0.0050086,-0.00079226,0.0,0 STARLINK-4549,1 53433U 22097AX  23076.91667824 -.00079226  00000-0 -50086-2 0  9998,2 53433  53.2154 307.3219 0001318  68.0729  55.1735 15.08887575  1304,6917.735,95.435,540.512,538.688,0.0
53433.0,STARLINK-4549,PAYLOAD,2023-03-18 00:38:09,15.0886274,0.0001268,53.2158,306.8275,64.8711,295.2413,0.0011498,0.0001807,0.0,0 STARLINK-4549,1 53433U 22097AX  23077.02649901  .00018070  00000-0  11498-2 0  9999,2 53433  53.2158 306.8275 0001268  64.8711 295.2413 15.08862740 34104,6917.811,95.436,540.553,538.799,0.0
53433.0,STARLINK-4549,PAYLOAD,2023-03-18 08:35:05,15.08859328,0.0001304,53.2157,305.3409,63.6118,296.5008,0.00068649,0.0001066,0.0,0 STARLINK-4549,1 53433U 22097AX  23077.35769716  .00010660  00000-0  68649-3 0  9990,2 53433  53.2157 305.3409 0001304  63.6118 296.5008 15.08859328 34152,6917.821,95.436,540.588,538.784,0.0
53433.0,STARLINK-4549,PAYLOAD,2023-03-18 21:18:09,15.0885328,0.0001275,53.2151,302.9605,76.5322,283.5813,0.00029073,4.344e-05,0.0,0 STARLINK-4549,1 53433U 22097AX  23077.88761452  .00004344  00000-0  29073-3 0  9997,2 53433  53.2151 302.9605 0001275  76.5322 283.5813 15.08853280 34234,6917.84,95.437,540.587,538.823,0.0
53433.0,STARLINK-4549,PAYLOAD,2023-03-19 08:25:51,15.08852627,0.0001294,53.2148,300.8796,73.2435,286.8699,0.00022076,3.228e-05,0.0,0 STARLINK-4549,1 53433U 22097AX  23078.35129205  .00003228  00000-0  22076-3 0  9990,2 53433  53.2148 300.8796 0001294  73.2435 286.8699 15.08852627 34768,6917.842,95.437,540.602,538.812,0.0
53433.0,STARLINK-4549,PAYLOAD,2023-03-19 14:47:24,15.08847196,0.0001534,53.2148,299.6913,77.1133,283.003,7.4931e-05,9.05e-06,0.0,0 STARLINK-4549,1 53433U 22097AX  23078.61625392  .00000905  00000-0  74931-4 0  9994,2 53433  53.2148 299.6913 0001534  77.1133 283.0030 15.08847196 34346,6917.858,95.437,540.785,538.662,0.0
53433.0,STARLINK-4549,PAYLOAD,2023-03-19 21:08:56,15.08847883,0.0001412,53.2151,298.5014,79.7774,280.3377,7.9725e-05,9.81e-06,0.0,0 STARLINK-4549,1 53433U 22097AX  23078.88121263  .00000981  00000-0  79725-4 0  9991,2 53433  53.2151 298.5014 0001412  79.7774 280.3377 15.08847883 34846,6917.856,95.437,540.698,538.744,0.0
53433.0,STARLINK-4549,PAYLOAD,2023-03-20 00:19:42,15.08849904,0.000133,53.2158,297.9061,81.9992,278.1152,8.4692e-05,1.061e-05,0.0,0 STARLINK-4549,1 53433U 22097AX  23079.01369118  .00001061  00000-0  84692-4 0  9999,2 53433  53.2158 297.9061 0001330  81.9992 278.1152 15.08849904 34868,6917.85,95.437,540.635,538.795,0.0
53433.0,STARLINK-4549,PAYLOAD,2023-03-20 20:59:43,15.08845154,0.000138,53.2154,294.0383,88.3621,271.7529,0.00012886,1.764e-05,0.0,0 STARLINK-4549,1 53433U 22097AX  23079.87481247  .00001764  00000-0  12886-3 0  9996,2 53433  53.2154 294.0383 0001380  88.3621 271.7529 15.08845154 34538,6917.865,95.437,540.684,538.775,0.0
